{"type": "FeatureCollection", "features": [ {"type": "Feature", "properties": {"norad_id": 39620, "name": "COSMOS 2492 (754)", "group": "gnss", "lat": 53.3542977658089, "lon": -1.924559520096173, "alt_km": 19135.540000269742, "timestamp": "2025-12-17T19:34:08.281176+00:00", "meta": {"OBJECT_NAME": "COSMOS 2492 (754)", "OBJECT_ID": "2014-012A", "EPOCH": "2025-12-16T07:50:46.447872", "MEAN_MOTION": 2.13103282, "ECCENTRICITY": 0.00142536, "INCLINATION": 65.4058, "RA_OF_ASC_NODE": 320.149, "ARG_OF_PERICENTER": 313.159, "MEAN_ANOMALY": 46.7158, "EPHEMERIS_TYPE": 0, "CLASSIFICATION_TYPE": "U", "NORAD_CAT_ID": 39620, "ELEMENT_SET_NO": 999, "REV_AT_EPOCH": 9134, "BSTAR": 0, "MEAN_MOTION_DOT": -6.8e-07, "MEAN_MOTION_DDOT": 0}, "tle": {"line1": "1 39620U 14012A   25350.32692648 -.00000068  00000+0  00000+0 0  9996", "line2": "2 39620  65.4058 320.1490 0014253 313.1590  46.7158  2.13103282 91346"}}, "geometry": {"type": "Point", "coordinates": [-1.924559520096173, 53.3542977658089]}}, {"type": "Feature", "properties": {"norad_id": 39635, "name": "IRNSS-1B", "group": "gnss", "lat": -5.741527256125237, "lon": 73.90408291720934, "alt_km": 35747.13422347814, "timestamp": "2025-12-17T19:34:08.281188+00:00", "meta": {"OBJECT_NAME": "IRNSS-1B", "OBJECT_ID": "2014-017A", "EPOCH": "2025-12-16T18:45:22.546080", "MEAN_MOTION": 1.00269874, "ECCENTRICITY": 0.00189725, "INCLINATION": 29.2588, "RA_OF_ASC_NODE": 243.5372, "ARG_OF_PERICENTER": 251.6767, "MEAN_ANOMALY": 287.2039, "EPHEMERIS_TYPE": 0, "CLASSIFICATION_TYPE": "U", "NORAD_CAT_ID": 39635, "ELEMENT_SET_NO": 999, "REV_AT_EPOCH": 4296, "BSTAR": 0, "MEAN_MOTION_DOT": 1.41e-06, "MEAN_MOTION_DDOT": 0}, "tle": {"line1": "1 39635U 14017A   25350.78151095  .00000141  00000+0  00000+0 0  9994", "line2": "2 39635  29.2588 243.5372 0018972 251.6767 287.2039  1.00269874 42968"}}, "geometry": {"type": "Point", "coordinates": [73.90408291720934, -5.741527256125237]}}, {"type": "Feature", "properties": {"norad_id": 39727, "name": "LUCH 5V (SDCM/PRN 141)", "group": "gnss", "lat": 3.2365624836307485, "lon": 114.79398344479183, "alt_km": 35804.69437088602, "timestamp": "2025-12-17T19:34:08.281202+00:00", "meta": {"OBJECT_NAME": "LUCH 5V (SDCM/PRN 141)", "OBJECT_ID": "2014-023A", "EPOCH": "2025-12-17T03:30:11.533248", "MEAN_MOTION": 1.00267977, "ECCENTRICITY": 0.00043387, "INCLINATION": 4.6802, "RA_OF_ASC_NODE": 71.4982, "ARG_OF_PERICENTER": 210.5548, "MEAN_ANOMALY": 311.2177, "EPHEMERIS_TYPE": 0, "CLASSIFICATION_TYPE": "U", "NORAD_CAT_ID": 39727, "ELEMENT_SET_NO": 999, "REV_AT_EPOCH": 4253, "BSTAR": 0, "MEAN_MOTION_DOT": -2.47e-06, "MEAN_MOTION_DDOT": 0}, "tle": {"line1": "1 39727U 14023A   25351.14596682 -.00000247  00000+0  00000+0 0  9997", "line2": "2 39727   4.6802  71.4982 0004338 210.5548 311.2177  1.00267977 42539"}}, "geometry": {"type": "Point", "coordinates": [114.79398344479183, 3.2365624836307485]}}, {"type": "Feature", "properties": {"norad_id": 39741, "name": "GPS BIIF-6  (PRN 06)", "group": "gnss", "lat": -47.2482254462947, "lon": -155.8509464642459, "alt_km": 20164.236973736704, "timestamp": "2025-12-17T19:34:08.281213+00:00", "meta": {"OBJECT_NAME": "GPS BIIF-6  (PRN 06)", "OBJECT_ID": "2014-026A", "EPOCH": "2025-12-16T11:34:54.885216", "MEAN_MOTION": 2.00561186, "ECCENTRICITY": 0.00392879, "INCLINATION": 56.5821, "RA_OF_ASC_NODE": 338.6307, "ARG_OF_PERICENTER": 318.9019, "MEAN_ANOMALY": 40.8126, "EPHEMERIS_TYPE": 0, "CLASSIFICATION_TYPE": "U", "NORAD_CAT_ID": 39741, "ELEMENT_SET_NO": 999, "REV_AT_EPOCH": 8487, "BSTAR": 0, "MEAN_MOTION_DOT": -8.7e-07, "MEAN_MOTION_DDOT": 0}, "tle": {"line1": "1 39741U 14026A   25350.48257969 -.00000087  00000+0  00000+0 0  9996", "line2": "2 39741  56.5821 338.6307 0039287 318.9019  40.8126  2.00561186 84870"}}, "geometry": {"type": "Point", "coordinates": [-155.8509464642459, -47.2482254462947]}}, {"type": "Feature", "properties": {"norad_id": 40001, "name": "COSMOS 2500 (755)", "group": "gnss", "lat": -58.7138104279768, "lon": -89.24895089944827, "alt_km": 19129.103962993315, "timestamp": "2025-12-17T19:34:08.281225+00:00", "meta": {"OBJECT_NAME": "COSMOS 2500 (755)", "OBJECT_ID": "2014-032A", "EPOCH": "2025-12-16T23:14:23.843328", "MEAN_MOTION": 2.13106023, "ECCENTRICITY": 0.00080797, "INCLINATION": 65.3407, "RA_OF_ASC_NODE": 319.8884, "ARG_OF_PERICENTER": 219.086, "MEAN_ANOMALY": 140.8487, "EPHEMERIS_TYPE": 0, "CLASSIFICATION_TYPE": "U", "NORAD_CAT_ID": 40001, "ELEMENT_SET_NO": 999, "REV_AT_EPOCH": 8957, "BSTAR": 0, "MEAN_MOTION_DOT": -6.8e-07, "MEAN_MOTION_DDOT": 0}, "tle": {"line1": "1 40001U 14032A   25350.96833152 -.00000068  00000+0  00000+0 0  9990", "line2": "2 40001  65.3407 319.8884 0008079 219.0860 140.8487  2.13106023 89572"}}, "geometry": {"type": "Point", "coordinates": [-89.24895089944827, -58.7138104279768]}}, {"type": "Feature", "properties": {"norad_id": 40105, "name": "GPS BIIF-7  (PRN 09)", "group": "gnss", "lat": -0.05495022014423848, "lon": -84.27036064296436, "alt_km": 20138.161411143992, "timestamp": "2025-12-17T19:34:08.281236+00:00", "meta": {"OBJECT_NAME": "GPS BIIF-7  (PRN 09)", "OBJECT_ID": "2014-045A", "EPOCH": "2025-12-15T01:46:50.034144", "MEAN_MOTION": 2.00572752, "ECCENTRICITY": 0.00326343, "INCLINATION": 55.2306, "RA_OF_ASC_NODE": 95.8057, "ARG_OF_PERICENTER": 119.9544, "MEAN_ANOMALY": 240.3532, "EPHEMERIS_TYPE": 0, "CLASSIFICATION_TYPE": "U", "NORAD_CAT_ID": 40105, "ELEMENT_SET_NO": 999, "REV_AT_EPOCH": 8238, "BSTAR": 0, "MEAN_MOTION_DOT": -3.6e-07, "MEAN_MOTION_DDOT": 0}, "tle": {"line1": "1 40105U 14045A   25349.07419021 -.00000036  00000+0  00000+0 0  9999", "line2": "2 40105  55.2306  95.8057 0032634 119.9544 240.3532  2.00572752 82388"}}, "geometry": {"type": "Point", "coordinates": [-84.27036064296436, -0.05495022014423848]}}, {"type": "Feature", "properties": {"norad_id": 40128, "name": "GSAT0201 (GALILEO 5)", "group": "gnss", "lat": 13.614626138510003, "lon": -67.0494944037546, "alt_km": 25587.804822757877, "timestamp": "2025-12-17T19:34:08.281249+00:00", "meta": {"OBJECT_NAME": "GSAT0201 (GALILEO 5)", "OBJECT_ID": "2014-050A", "EPOCH": "2025-12-14T00:08:14.916480", "MEAN_MOTION": 1.85519648, "ECCENTRICITY": 0.16480052, "INCLINATION": 49.0753, "RA_OF_ASC_NODE": 281.012, "ARG_OF_PERICENTER": 172.3262, "MEAN_ANOMALY": 190.5827, "EPHEMERIS_TYPE": 0, "CLASSIFICATION_TYPE": "U", "NORAD_CAT_ID": 40128, "ELEMENT_SET_NO": 999, "REV_AT_EPOCH": 7488, "BSTAR": 0, "MEAN_MOTION_DOT": -9.9e-07, "MEAN_MOTION_DDOT": 0}, "tle": {"line1": "1 40128U 14050A   25348.00572820 -.00000099  00000+0  00000+0 0  9998", "line2": "2 40128  49.0753 281.0120 1648005 172.3262 190.5827  1.85519648 74882"}}, "geometry": {"type": "Point", "coordinates": [-67.0494944037546, 13.614626138510003]}}, {"type": "Feature", "properties": {"norad_id": 40129, "name": "GSAT0202 (GALILEO 6)", "group": "gnss", "lat": -35.961782794632505, "lon": 138.8401970630446, "alt_km": 18639.174527842788, "timestamp": "2025-12-17T19:34:08.281261+00:00", "meta": {"OBJECT_NAME": "GSAT0202 (GALILEO 6)", "OBJECT_ID": "2014-050B", "EPOCH": "2025-12-14T06:17:14.023104", "MEAN_MOTION": 1.85520414, "ECCENTRICITY": 0.16487132, "INCLINATION": 49.0906, "RA_OF_ASC_NODE": 280.0852, "ARG_OF_PERICENTER": 173.0839, "MEAN_ANOMALY": 189.5459, "EPHEMERIS_TYPE": 0, "CLASSIFICATION_TYPE": "U", "NORAD_CAT_ID": 40129, "ELEMENT_SET_NO": 999, "REV_AT_EPOCH": 7705, "BSTAR": 0, "MEAN_MOTION_DOT": -9.7e-07, "MEAN_MOTION_DDOT": 0}, "tle": {"line1": "1 40129U 14050B   25348.26196786 -.00000097  00000+0  00000+0 0  9998", "line2": "2 40129  49.0906 280.0852 1648713 173.0839 189.5459  1.85520414 77052"}}, "geometry": {"type": "Point", "coordinates": [138.8401970630446, -35.961782794632505]}}, {"type": "Feature", "properties": {"norad_id": 40269, "name": "IRNSS-1C", "group": "gnss", "lat": 1.1477975746221867, "lon": 103.15449206477149, "alt_km": 35709.57533757372, "timestamp": "2025-12-17T19:34:08.281317+00:00", "meta": {"OBJECT_NAME": "IRNSS-1C", "OBJECT_ID": "2014-061A", "EPOCH": "2025-12-16T22:29:51.732384", "MEAN_MOTION": 1.00274527, "ECCENTRICITY": 0.00180898, "INCLINATION": 6.052, "RA_OF_ASC_NODE": 92.5383, "ARG_OF_PERICENTER": 1.5445, "MEAN_ANOMALY": 52.1589, "EPHEMERIS_TYPE": 0, "CLASSIFICATION_TYPE": "U", "NORAD_CAT_ID": 40269, "ELEMENT_SET_NO": 999, "REV_AT_EPOCH": 4086, "BSTAR": 0, "MEAN_MOTION_DOT": -1.42e-06, "MEAN_MOTION_DDOT": 0}, "tle": {"line1": "1 40269U 14061A   25350.93740431 -.00000142  00000+0  00000+0 0  9995", "line2": "2 40269   6.0520  92.5383 0018089   1.5445  52.1589  1.00274527 40867"}}, "geometry": {"type": "Point", "coordinates": [103.15449206477149, 1.1477975746221867]}}, {"type": "Feature", "properties": {"norad_id": 40294, "name": "GPS BIIF-8  (PRN 03)", "group": "gnss", "lat": -56.80317412790833, "lon": -56.00084592715952, "alt_km": 20341.14503231792, "timestamp": "2025-12-17T19:34:08.281330+00:00", "meta": {"OBJECT_NAME": "GPS BIIF-8  (PRN 03)", "OBJECT_ID": "2014-068A", "EPOCH": "2025-12-16T10:44:59.348832", "MEAN_MOTION": 2.00565206, "ECCENTRICITY": 0.00607873, "INCLINATION": 56.8606, "RA_OF_ASC_NODE": 38.0026, "ARG_OF_PERICENTER": 69.1046, "MEAN_ANOMALY": 291.6035, "EPHEMERIS_TYPE": 0, "CLASSIFICATION_TYPE": "U", "NORAD_CAT_ID": 40294, "ELEMENT_SET_NO": 999, "REV_AT_EPOCH": 8154, "BSTAR": 0, "MEAN_MOTION_DOT": -8.2e-07, "MEAN_MOTION_DDOT": 0}, "tle": {"line1": "1 40294U 14068A   25350.44790913 -.00000082  00000+0  00000+0 0  9999", "line2": "2 40294  56.8606  38.0026 0060787  69.1046 291.6035  2.00565206 81545"}}, "geometry": {"type": "Point", "coordinates": [-56.00084592715952, -56.80317412790833]}}]}